KUIPER-00104            
1 65142U 25171L   25345.28441025 -.00003880  00000+0 -45573-3 0  9996
2 65142  51.8988 187.9325 0002341 237.8846 122.1890 14.82063174 19810
KUIPER-00105            
1 65143U 25171M   25345.88041456  .00005716  00000+0  77735-3 0  9990
2 65143  51.8999 193.9429 0013331 170.6435 189.4778 14.79936153 19783
KUIPER-00106            
1 65144U 25171N   25344.98360654  .00007403  00000+0  66615-3 0  9995
2 65144  51.8916 197.8822 0009621 161.9752 198.1561 14.96495446 19652
KUIPER-00107            
1 65145U 25171P   25345.91668981 -.01145543  00000+0 -88849-1 0  9996
2 65145  51.8867 177.7368 0007296 215.3568 204.5061 15.04067259  5362
KUIPER-00108            
1 65146U 25171Q   25345.98718601  .00004568  00000+0  62852-3 0  9995
2 65146  51.9011 188.4100 0008665 178.0179 182.0819 14.79875509 19870
KUIPER-00109            
1 65147U 25171R   25345.91668981  .00000618  00000+0  10989-3 0  9990
2 65147  51.9002 183.6635 0012035 191.7453 303.0142 14.80118045  5746
KUIPER-00110            
1 65148U 25171S   25345.97442705 -.00016218  00000+0 -22635-2 0  9996
2 65148  51.8967 195.9682 0011174 173.7786 186.3316 14.76795549 19752
KUIPER-00111            
1 65149U 25171T   25345.33211569  .00023991  00000+0  31621-2 0  9998
2 65149  51.9033 203.7854 0009158 179.8445 180.2522 14.79942810 19597
